TYVAK-0130              
1 48606U 21041BF  26068.48452211  .00008857  00000+0  35198-3 0  9997
2 48606  52.9967 128.6030 0008953 215.1647 144.8760 15.26049141265157
STARLINK-32500          
1 61935U 24207Z   26068.58174914  .00024718  00000+0  90450-3 0  9992
2 61935  42.9989 285.9761 0000744  28.1004 331.9887 15.27589215 74662
